[{"OBJECT_NAME":"OBJECT Y","OBJECT_ID":"2023-085Y","EPOCH":"2026-03-09T22:38:54.992256","MEAN_MOTION":15.32500153,"ECCENTRICITY":0.00063298,"INCLINATION":97.4849,"RA_OF_ASC_NODE":180.8653,"ARG_OF_PERICENTER":67.4431,"MEAN_ANOMALY":292.748,"EPHEMERIS_TYPE":0,"CLASSIFICATION_TYPE":"U","NORAD_CAT_ID":57026,"ELEMENT_SET_NO":999,"REV_AT_EPOCH":15160,"BSTAR":0.00065512761,"MEAN_MOTION_DOT":0.00020524,"MEAN_MOTION_DDOT":0},{"OBJECT_NAME":"STARLINK-31032","OBJECT_ID":"2023-192E","EPOCH":"2026-03-09T06:42:10.274112","MEAN_MOTION":15.30202083,"ECCENTRICITY":0.00014918,"INCLINATION":53.1623,"RA_OF_ASC_NODE":64.5659,"ARG_OF_PERICENTER":87.9905,"MEAN_ANOMALY":272.1267,"EPHEMERIS_TYPE":0,"CLASSIFICATION_TYPE":"U","NORAD_CAT_ID":58535,"ELEMENT_SET_NO":999,"REV_AT_EPOCH":12592,"BSTAR":9.3541556e-5,"MEAN_MOTION_DOT":2.412e-5,"MEAN_MOTION_DDOT":0}]
